25286,IRIDIUM 63,1998,100.25,-1.0,-,86.39,Inactive,0,LEO,Kazakhstan,USA,Unknown,Unknown,Unknown,1 25286U 98021B   25085.84437670  .00001086  00000+0  36393-3 0  9993,2 25286  86.3944 116.6892 0002318  95.4911 264.6550 14.36446151412027,14.36446151,0.0002318,LEO
25319,IRIDIUM 69,1998,99.94,-1.0,-,86.4,Inactive,0,LEO,PRC,USA,Unknown,Unknown,Unknown,1 25319U 98026A   25085.83129394  .00001395  00000+0  42940-3 0  9993,2 25319  86.3966 130.2315 0000934  16.0108 344.1121 14.40851562411207,14.40851562,9.34e-05,LEO
25320,IRIDIUM 71,1998,99.93,-1.0,-,86.4,Inactive,0,LEO,PRC,USA,Unknown,Unknown,Unknown,1 25320U 98026B   25085.84927966  .00001193  00000+0  36486-3 0  9991,2 25320  86.3953 124.9302 0003065  47.9316 312.2144 14.41054444411737,14.41054444,0.0003065,LEO
25344,IRIDIUM 73,1998,99.2,-1.0,-,86.44,Inactive,0,LEO,USA,USA,Unknown,Unknown,Unknown,1 25344U 98032C   25086.24046188  .00002202  00000+0  54565-3 0  9997,2 25344  86.4353  81.6236 0001772  88.4217 271.7192 14.51551894418973,14.51551894,0.0001772,LEO
25467,IRIDIUM 82,1998,94.29,-1.0,-,86.37,Inactive,0,LEO,USA,USA,Unknown,Unknown,Unknown,1 25467U 98051A   25086.14211225  .00049220  00000+0  16134-2 0  9999,2 25467  86.3721 149.9288 0092103 246.1332 113.0244 15.27344415411412,15.27344415,0.0092103,LEO
